QIANFAN-89              
1 63175U 25046S   25281.55164241  .00000192  00000+0  27907-3 0  9994
2 63175  88.9808 326.7829 0014716 319.1368  40.8679 13.50967886 38606
QIANFAN-90              
1 63176U 25046T   25281.50632179  .00000163  00000+0  23464-3 0  9992
2 63176  88.9806 326.7599 0011631 318.5345  41.4922 13.50969983 38619
